SENTINEL-6              
1 46984U 20086A   23336.15297668 -.00000032  00000+0  12422-3 0  9997
2 46984  66.0412 262.5861 0007820 269.4214  90.5905 12.80928416141462
